0 CRRES DEB (CANISTER)
1 29530U 90065X   13281.06210647  .00000675  00000-0  98803-3 0  7111
2 29530 017.7286 232.2654 7150260 022.4774 357.2230 02.40196136100727
0 CRRES DEB (CANISTER)
1 29530U 90065X   13282.72721531  .00000856  00000-0  97676-3 0  7123
2 29530 017.7211 231.5571 7150814 023.7700 357.0634 02.40199460100766
0 CRRES DEB (CANISTER)
1 29530U 90065X   13287.72240851  .00015118  00000-0  13429-1 0  7139
2 29530 017.7041 229.4472 7153932 027.5657 356.8252 02.40287202100888
0 CRRES DEB (CANISTER)
1 29530U 90065X   13293.96150422  .00001354  00000-0  15721-2 0  7142
2 29530 017.6801 226.8018 7155189 032.4464 352.5137 02.40243175101039
